{"type":"FeatureCollection","features":[{"type":"Feature","properties":{"kind":"route","name":"SLE Bike Bus route","source":"Traced by Ben, exported from SLV_Bike_Bus_Route.gpx"},"geometry":{"type":"LineString","coordinates":[[-122.0762912,37.0558554],[-122.07653,37.05566],[-122.07684,37.0555],[-122.07773,37.05512],[-122.07822,37.05487],[-122.07836,37.05467],[-122.07845,37.05442],[-122.07846,37.05427],[-122.0786,37.05399],[-122.07903,37.05353],[-122.07909,37.05348],[-122.0793,37.05345],[-122.07993,37.05348],[-122.07995,37.05346],[-122.07972,37.05387],[-122.07971,37.054],[-122.07975,37.05455],[-122.07975,37.05464],[-122.07934,37.05519],[-122.07921,37.05551],[-122.07918,37.05585],[-122.07922,37.05606],[-122.079465,37.05666],[-122.07971,37.05726],[-122.07997,37.05765],[-122.07993,37.05783],[-122.07995,37.058485],[-122.07997,37.05914],[-122.07988,37.05931],[-122.07971,37.05943],[-122.07937,37.05955],[-122.07965,37.0604],[-122.07984,37.06088],[-122.08003,37.06136],[-122.08005,37.06148],[-122.08028,37.06145],[-122.08033,37.06151],[-122.08033,37.06157],[-122.08033,37.06156],[-122.08033,37.06207],[-122.08037,37.06223],[-122.08042,37.06237],[-122.08048,37.0625],[-122.08063,37.06261],[-122.08069,37.06281],[-122.08082,37.06305],[-122.08083,37.06305],[-122.08109,37.06296],[-122.08113,37.06289]]}},{"type":"Feature","properties":{"kind":"start","name":"Start: Cooper St & Farmer St","time":"8:05am","label":"Start · leave 8:05am"},"geometry":{"type":"Point","coordinates":[-122.0762912,37.0558554]}},{"type":"Feature","properties":{"kind":"end","name":"SLV Elementary","time":"8:10–8:15am","label":"SLE · 8:10–8:15"},"geometry":{"type":"Point","coordinates":[-122.08113,37.06289]}}]}